# From MPEC 2025-EG2
C/2014 UN271 (Bernardinelli-Bernstein),h,01/16.4587/2031,95.4432,189.9522,326.0800,1.004146,10.960156,2000,2.5,3.2
# From MPEC 2025-EG2
P/2015 CD60 (LINEAR),e,14.4827,279.2304,179.0848,4.594203,0.1000896,0.57243165,8.3147,03/12.0/2025,2000,g 14.7,4.0
# From MPEC 2025-EG2
C/2017 K2 (PANSTARRS),e,87.6426,88.2218,236.1869,2554,0.0000076,0.99929525,0.0000,12/18.8340/2022,2000,g  1.5,4.0
# From MPEC 2025-EG2
C/2019 U5 (PANSTARRS),h,03/29.5143/2023,113.5124,2.6181,181.4518,1.000328,3.623975,2000,4.5,4.0
# From MPEC 2025-EG2
P/2019 Y3 (Catalina),e,24.5831,139.3105,2.5510,3.017391,0.1880428,0.69144535,1.4310,03/12.0/2025,2000,g 18.5,4.0
# From MPEC 2025-EG2
C/2020 K1 (PANSTARRS),e,89.6711,94.3667,213.9720,2948,0.0000062,0.99895749,0.0000,05/08.8623/2023,2000,g  5.5,4.0
# From MPEC 2025-EG2
C/2021 G2 (ATLAS),h,09/09.1384/2024,48.4695,221.0953,343.2677,1.000588,4.982336,2000,5.5,4.0
# From MPEC 2025-EG2
C/2021 S3 (PANSTARRS),h,02/14.6817/2024,58.5359,215.6131,6.8393,1.000057,1.319895,2000,5.5,4.0
# From MPEC 2025-EG2
C/2022 E2 (ATLAS),h,09/14.1403/2024,137.1407,125.3951,41.7437,1.000559,3.666356,2000,5.0,4.0
# From MPEC 2025-EG2
C/2022 L2 (ATLAS),h,03/12.2099/2024,129.3133,39.2404,199.9122,1.000992,2.692964,2000,6.5,4.0
# From MPEC 2025-EG2
C/2022 N2 (PANSTARRS),h,07/31.7703/2025,5.5030,319.7413,75.3909,1.003313,3.825421,2000,6.0,4.0
# From MPEC 2025-EG2
C/2022 QE78 (ATLAS),h,09/11.1381/2025,36.5904,119.8993,0.5269,1.004018,5.476478,2000,5.0,4.0
# From MPEC 2025-EG2
C/2022 R6 (PANSTARRS),h,08/26.0138/2025,57.0186,150.7864,319.8993,1.004991,6.565691,2000,5.0,4.0
# From MPEC 2025-EG2
C/2022 U3 (Bok),h,07/28.6620/2024,33.6614,272.7877,189.1287,1.000572,4.826623,2000,7.5,4.0
# From MPEC 2025-EG2
C/2023 A3 (Tsuchinshan-ATLAS),h,09/27.7419/2024,139.1112,21.5655,308.4999,1.000109,0.391483,2000,6.5,3.2
# From MPEC 2025-EG2
C/2023 F3 (ATLAS),h,02/02.6255/2025,145.9637,109.4645,265.5314,1.003638,5.190776,2000,6.0,4.0
# From MPEC 2025-EG2
C/2023 H1 (PANSTARRS),e,21.7824,292.6468,333.7572,760.1837,0.0000470,0.99414921,0.0000,11/28.6736/2024,2000,g  8.5,4.0
# From MPEC 2025-EG2
C/2023 H5 (Lemmon),h,06/30.2354/2025,97.8557,159.4788,60.0928,1.000422,4.312633,2000,7.0,4.0
# From MPEC 2025-EG2
C/2023 Q1 (PANSTARRS),h,12/01.1431/2024,36.6434,7.1261,84.4193,1.005098,2.575717,2000,10.0,4.0
# From MPEC 2025-EG2
C/2023 R1 (PANSTARRS),h,04/13.5168/2026,149.3168,62.5592,144.2770,1.002099,3.569664,2000,6.0,4.0
# From MPEC 2025-EG2
P/2023 S1,e,9.1575,317.2899,180.2996,3.844400,0.1307559,0.31857299,2.0721,03/12.0/2025,2000,g 11.5,4.0
# From MPEC 2025-EG2
C/2023 T3 (Fuls),e,27.2219,246.0011,302.8460,829.5094,0.0000413,0.99572239,0.0000,01/25.3397/2025,2000,g  8.5,4.0
# From MPEC 2025-EG2
P/2023 V2 (PANSTARRS),e,9.8883,95.4739,330.5281,7.223048,0.0507719,0.57024450,20.4227,03/12.0/2025,2000,g 13.5,4.0
# From MPEC 2025-EG2
C/2023 X2 (Lemmon),h,12/27.9459/2025,76.9868,66.3065,64.7373,1.000419,5.089340,2000,8.5,3.2
# From MPEC 2025-EG2
C/2023 X4 (Hogan),e,11.5940,28.7682,100.5802,9.919412,0.0315482,0.63120985,9.1808,03/12.0/2025,2000,g 12.0,4.0
# From MPEC 2025-EG2
C/2024 A1 (ATLAS),h,06/13.7295/2025,94.4505,112.1389,353.3144,1.001845,3.875282,2000,7.0,4.0
# From MPEC 2025-EG2
C/2024 B1 (Lemmon),h,10/07.7105/2024,70.9037,79.1880,66.2134,1.000959,1.633751,2000,13.0,4.0
# From MPEC 2025-EG2
C/2024 E1 (Wierzchos),h,01/20.7628/2026,75.2385,108.0817,243.6394,1.000051,0.565850,2000,7.0,4.0
# From MPEC 2025-EG2
C/2024 G2 (ATLAS),e,122.1281,171.3944,328.7319,738.5166,0.0000491,0.99275808,0.0000,06/13.4972/2025,2000,g  7.0,4.0
# From MPEC 2025-EG2
C/2024 J3 (ATLAS),h,11/25.2939/2026,75.6391,285.9612,74.0899,1.000869,3.864953,2000,5.0,4.0
# From MPEC 2025-EG2
C/2024 J4 (Lemmon),e,117.5321,19.3028,127.8569,6351,0.0000019,0.99910328,0.0000,04/26.0062/2025,2000,g  8.0,4.0
# From MPEC 2025-EG2
C/2024 L5 (ATLAS),h,03/10.3969/2025,166.5732,139.1762,290.5142,1.037285,3.432401,2000,9.0,4.0
# From MPEC 2025-EG2
C/2024 M1 (ATLAS),e,73.7098,76.2150,345.5917,29.88174,0.0060339,0.94299839,0.6757,03/12.0/2025,2000,g 12.0,4.0
# From MPEC 2025-EG2
C/2024 N3 (Sarneczky),h,04/11.4017/2025,88.7289,82.6081,86.8807,1.001182,5.014563,2000,8.0,4.0
# From MPEC 2025-EG2
C/2024 N4 (Sarneczky),h,01/10.0342/2025,49.7719,339.6611,116.6852,1.004508,5.397670,2000,7.5,4.0
# From MPEC 2025-EG2
C/2024 PN7 (PANSTARRS),e,101.2102,358.5835,74.2737,67.40593,0.0017810,0.97738267,0.0000,12/06.4385/2024,2000,g 15.2,4.0
# From MPEC 2025-EG2
C/2024 Q4 (PANSTARRS),e,3.3128,324.2921,133.0190,854.0965,0.0000395,0.99365545,0.0000,11/12.1488/2024,2000,g 10.0,4.0
# From MPEC 2025-EG2
A/2024 U2,h,01/14.1193/2026,120.6702,56.0696,29.7532,1.003298,8.181211,2000,12.0,2.0
# From MPEC 2025-EG2
C/2024 V1 (Borisov),e,54.6240,328.1947,168.6652,235.2605,0.0002731,0.99014509,0.0000,04/04.1064/2025,2000,g 14.8,4.0
# From MPEC 2025-EG2
C/2024 X2 (ATLAS),e,109.2210,122.5231,315.7743,50.54658,0.0027426,0.92726790,359.6768,03/12.0/2025,2000,g  9.6,4.0
# From MPEC 2025-EG2
P/2024 X3 (PANSTARRS),e,2.9724,113.3649,352.9338,6.997008,0.0532519,0.62640522,9.9711,03/12.0/2025,2000,g 14.6,4.0
# From MPEC 2025-EG2
P/2025 A2 (PANSTARRS),e,20.7333,189.3211,278.0603,5.085108,0.0859516,0.32225185,13.5152,03/12.0/2025,2000,g 13.2,4.0
# From MPEC 2025-EG2
C/2025 A3 (Tsuchinshan),e,9.9755,322.4324,222.2067,10.18798,0.0303090,0.43130026,348.8785,03/12.0/2025,2000,g  9.0,4.0
# From MPEC 2025-EG2
A/2025 A7,e,133.6488,348.8438,195.5623,4190,0.0000036,0.99931189,0.0000,03/28.0917/2025,2000,g 14.0,2.0
# From MPEC 2025-EG2
P/2025 C1 (ATLAS),e,7.5198,9.1049,187.1574,4.181331,0.1152742,0.34330725,3.6892,03/12.0/2025,2000,g 10.8,4.0
# From MPEC 2025-EG2
P/2025 D2 (PANSTARRS),e,5.3342,256.7290,314.0651,8.917528,0.0370116,0.17810137,310.5782,03/12.0/2025,2000,g  8.2,4.0
# From MPEC 2025-EG2
P/2025 D3 (PANSTARRS),e,9.6443,186.6357,294.4555,3.966861,0.1247480,0.25245441,28.6082,03/12.0/2025,2000,g 14.7,4.0
# From MPEC 2025-EG2
P/2025 D4 (ATLAS),e,15.9409,233.1196,332.8886,8.899261,0.0371256,0.63424674,0.9549,03/12.0/2025,2000,g 13.2,4.0
# From MPEC 2025-EG2
C/2025 E1 (PANSTARRS),e,69.0737,344.6007,274.4612,2821,0.0000066,0.99858421,0.0000,09/23.4584/2026,2000,g  9.7,4.0
# From MPEC 2025-EG2
10P/Tempel,e,12.0275,117.8012,195.5000,3.063609,0.1838036,0.53737764,266.5959,03/12.0/2025,2000,g  5.0,10.0
# From MPEC 2025-EG2
29P/Schwassmann-Wachmann,e,9.3561,312.4043,52.1844,6.056455,0.0661266,0.04341483,141.4578,03/12.0/2025,2000,g  4.0,4.0
# From MPEC 2025-EG2
30P/Reinmuth,e,8.0532,117.2341,9.5035,3.734902,0.1365479,0.51437439,28.2362,03/12.0/2025,2000,g  9.5,6.0
# From MPEC 2025-EG2
32P/ComasSola,e,9.9204,54.5313,54.6962,4.553457,0.1014360,0.55529815,33.0003,03/12.0/2025,2000,g  6.5,8.0
# From MPEC 2025-EG2
33P/Daniel,e,22.2941,66.2815,20.2669,4.093044,0.1190240,0.45210973,14.4104,03/12.0/2025,2000,g 10.0,12.0
# From MPEC 2025-EG2
43P/Wolf-Harrington,e,9.3334,243.9962,223.8481,4.332330,0.1093004,0.43619477,344.0600,03/12.0/2025,2000,g  8.0,6.0
# From MPEC 2025-EG2
49P/Arend-Rigaux,e,19.0589,118.7919,332.9343,3.570150,0.1461081,0.59907900,355.6726,03/12.0/2025,2000,g 11.3,4.4
# From MPEC 2025-EG2
50P/Arend,e,19.0996,355.1462,49.3227,4.087465,0.1192677,0.52977674,36.1776,03/12.0/2025,2000,g  9.5,6.0
# From MPEC 2025-EG2
62P/Tsuchinshan,e,4.7372,68.6662,47.3251,3.370818,0.1592580,0.62470286,70.5225,03/12.0/2025,2000,g  8.0,10.0
# From MPEC 2025-EG2
65P/Gunn,e,9.1756,61.9765,213.6857,3.891897,0.1283696,0.24812267,347.6086,03/12.0/2025,2000,g  5.0,6.0
# From MPEC 2025-EG2
88P/Howell,e,4.3820,56.6683,235.8859,3.108202,0.1798623,0.56319316,293.1254,03/12.0/2025,2000,g 11.0,6.0
# From MPEC 2025-EG2
103P/Hartley,e,13.6090,219.7542,181.3243,3.475460,0.1521198,0.69357664,78.5757,03/12.0/2025,2000,g  8.5,8.0
# From MPEC 2025-EG2
172P/Yeung,e,11.2236,30.8824,208.9100,4.222973,0.1135734,0.20480104,333.2404,03/12.0/2025,2000,g 13.0,4.0
# From MPEC 2025-EG2
195P/Hill,e,36.4187,243.1039,250.5531,6.448515,0.0601886,0.31135848,351.1976,03/12.0/2025,2000,g  8.5,4.0
# From MPEC 2025-EG2
242P/Spahr,e,32.4253,180.2768,244.9386,5.537510,0.0756367,0.28277803,5.9549,03/12.0/2025,2000,g  8.0,4.0
# From MPEC 2025-EG2
253P/PANSTARRS,e,4.9440,146.8536,230.8383,3.464137,0.1528662,0.41492589,21.7045,03/12.0/2025,2000,g 14.5,4.0
# From MPEC 2025-EG2
276P/Vorobjov,e,14.7895,211.3150,199.2901,5.358501,0.0794583,0.27243052,7.2458,03/12.0/2025,2000,g 11.5,4.0
# From MPEC 2025-EG2
305P/Skiff,e,11.6713,240.1040,147.4179,4.637393,0.0986946,0.69410060,11.3350,03/12.0/2025,2000,g 18.0,4.0
# From MPEC 2025-EG2
333P/LINEAR,e,132.0224,115.7065,26.0180,4.220279,0.1136822,0.73628451,11.6754,03/12.0/2025,2000,g 15.0,4.0
# From MPEC 2025-EG2
404P/Bressi,e,9.8043,260.0420,169.0736,4.720030,0.0961141,0.12444142,47.7199,03/12.0/2025,2000,g 10.0,4.0
# From MPEC 2025-EG2
472P/NEAT-LINEAR,e,10.8241,205.8843,218.8697,7.794792,0.0452895,0.56531733,10.8911,03/12.0/2025,2000,g 10.5,4.0
# From MPEC 2025-EG2
487P/SidingSpring,e,39.3666,49.2074,0.8541,5.164570,0.0839755,0.64858938,11.9560,03/12.0/2025,2000,g 13.5,4.0
# From MPEC 2025-EG2
496P/Hill,e,14.8145,63.5875,42.2474,6.102311,0.0653827,0.73435486,0.1123,03/12.0/2025,2000,g 14.0,4.0
# From MPC107687
1I/`Oumuamua,h,09/09.4886/2017,122.6778,24.5997,241.6845,1.199252,0.255240,2000,23.0,2.0
# From MPEC 2023-L37
2I/Borisov,h,12/08.5548/2019,44.0527,308.1480,209.1251,3.356633,2.006548,2000,11.0,4.0
